OBJECT_NAME,OBJECT_ID,EPOCH,MEAN_MOTION,ECCENTRICITY,INCLINATION,RA_OF_ASC_NODE,ARG_OF_PERICENTER,MEAN_ANOMALY,EPHEMERIS_TYPE,CLASSIFICATION_TYPE,NORAD_CAT_ID,ELEMENT_SET_NO,REV_AT_EPOCH,BSTAR,MEAN_MOTION_DOT,MEAN_MOTION_DDOT
IRIDIUM 33 DEB,1997-051KT,2024-07-08T04:05:27.165984,14.33632758,.0117701,86.1984,264.0274,112.8791,278.2993,0,U,34696,999,79151,.49945E-2,.14993E-3,0
IRIDIUM 33 DEB,1997-051KZ,2024-07-07T20:40:53.647392,14.83940363,.0023859,86.3018,145.9976,304.5771,55.3201,0,U,34702,999,81704,.2387E-2,.19997E-3,0
IRIDIUM 33 DEB,1997-051LJ,2024-07-08T04:16:22.375200,14.37669406,.0019183,86.3387,256.4388,132.9437,256.3280,0,U,34765,999,80176,.49799E-3,.1518E-4,0
IRIDIUM 33 DEB,1997-051LS,2024-07-07T21:21:57.764160,15.04217324,.000438,86.3843,249.1862,82.0743,278.0988,0,U,34773,999,81388,.54804E-2,.76889E-3,0
IRIDIUM 33 DEB,1997-051LU,2024-07-07T05:02:26.242944,14.64644752,.0020174,86.3712,261.5437,299.2650,114.5643,0,U,34775,999,80570,.22266E-2,.11899E-3,0
IRIDIUM 33 DEB,1997-051LZ,2024-07-07T08:32:43.362816,15.22040409,.0006964,86.3501,220.2942,145.5133,226.9463,0,U,34825,999,80949,.66612E-2,.155301E-2,0
IRIDIUM 33 DEB,1997-051MH,2024-07-07T10:49:49.891296,14.46193210,.0022299,86.3950,275.3952,51.0998,71.8351,0,U,34833,999,80133,.91677E-3,.3307E-4,0
IRIDIUM 33 DEB,1997-051MQ,2024-07-07T07:26:29.154624,14.61341198,.0024262,86.3186,190.9725,192.7585,230.1069,0,U,34870,999,81223,.11551E-2,.5752E-4,0
IRIDIUM 33 DEB,1997-051MY,2024-07-07T19:00:32.078880,14.57395780,.0031106,86.3337,199.5795,197.9992,285.9558,0,U,34896,999,80683,.87022E-3,.3992E-4,0
IRIDIUM 33 DEB,1997-051NF,2024-07-07T03:59:53.477088,14.28215136,.0137582,86.1439,245.7336,213.5963,202.4351,0,U,34926,999,78909,.23356E-2,.6457E-4,0
IRIDIUM 33 DEB,1997-051NH,2024-07-07T08:07:24.316032,14.78214973,.0024983,86.3928,217.4149,38.1899,322.1085,0,U,34928,999,58400,.16656E-2,.12172E-3,0
IRIDIUM 33 DEB,1997-051NR,2024-07-07T17:01:49.934208,14.38729579,.0024418,86.3695,279.3361,145.8917,6.2196,0,U,34985,999,79675,.65061E-3,.2022E-4,0
IRIDIUM 33 DEB,1997-051NX,2024-07-07T09:45:57.409344,14.42942319,.0009595,86.3246,236.0900,42.0570,318.1365,0,U,35051,999,79435,.63511E-3,.2143E-4,0
IRIDIUM 33 DEB,1997-051NY,2024-07-07T10:10:27.653088,14.37160974,.0011609,86.3302,244.4929,10.5357,349.6082,0,U,35052,999,79755,.21762E-3,.667E-5,0
IRIDIUM 33 DEB,1997-051PF,2024-07-07T05:52:11.400960,14.38337618,.0138759,86.2248,291.2330,154.0291,206.7959,0,U,35080,999,62058,.41508E-2,.14172E-3,0
IRIDIUM 33 DEB,1997-051PL,2024-07-04T17:45:57.568896,14.81111584,.0004541,86.2977,188.9516,39.2479,320.9071,0,U,35296,999,80094,.42308E-2,.33002E-3,0
IRIDIUM 33 DEB,1997-051PM,2024-07-07T00:39:51.939936,14.40736639,.0018417,86.3882,285.4345,80.9929,279.3354,0,U,35297,999,62872,.78736E-3,.254E-4,0
IRIDIUM 33 DEB,1997-051PP,2024-07-07T23:18:12.180384,14.34527529,.0058463,86.2895,259.5229,22.3259,98.1470,0,U,35299,999,78932,.9624E-3,.2786E-4,0
IRIDIUM 33 DEB,1997-051QA,2024-07-06T21:54:06.339168,14.44962768,.0015805,86.3574,251.1026,58.6741,301.6005,0,U,35480,999,79452,.64796E-3,.2281E-4,0
IRIDIUM 33 DEB,1997-051QE,2024-07-07T09:47:15.730944,14.65700031,.003962,86.3704,230.8872,169.1691,191.0385,0,U,35484,999,54264,.15208E-2,.8397E-4,0
IRIDIUM 33 DEB,1997-051QJ,2024-07-07T10:39:06.664032,14.67328984,.0037253,86.3346,179.1473,67.2585,293.2559,0,U,35488,999,80547,.11326E-2,.6483E-4,0
IRIDIUM 33 DEB,1997-051QN,2024-07-07T20:04:00.926112,14.63011403,.0015037,86.3613,220.8865,190.2473,169.8434,0,U,35616,999,80097,.1356E-2,.6984E-4,0
IRIDIUM 33 DEB,1997-051QQ,2024-06-30T08:54:45.861696,14.48231680,.003011,86.3419,224.6193,356.9619,3.1396,0,U,35618,999,57705,.79284E-3,.2994E-4,0
IRIDIUM 33 DEB,1997-051QS,2024-07-06T22:15:21.112416,14.17110982,.0189968,86.3880,75.1365,146.6418,214.6912,0,U,35620,999,52486,.41973E-2,.10114E-3,0
IRIDIUM 33 DEB,1997-051QU,2024-07-08T04:08:36.786336,14.61398708,.001975,86.2173,151.2275,332.4552,38.7861,0,U,35622,999,79772,.32933E-2,.16379E-3,0
IRIDIUM 33 DEB,1997-051QX,2024-06-28T23:16:31.279008,14.22334378,.012,86.1966,255.2452,111.8983,11.7643,0,U,35625,999,78187,.39888E-2,.9569E-4,0
IRIDIUM 33 DEB,1997-051RA,2024-07-06T20:32:39.554304,14.54955543,.0012627,86.3600,240.4306,318.7103,41.3148,0,U,35628,999,78792,.1151E-2,.4976E-4,0
IRIDIUM 33 DEB,1997-051RD,2024-07-07T09:54:00.749088,14.44897385,.0020204,86.3671,245.7994,68.5178,304.2886,0,U,35631,999,79633,.33382E-3,.1184E-4,0
IRIDIUM 33 DEB,1997-051RE,2024-07-07T22:02:21.345504,14.52025354,.0094809,86.4248,0.8644,126.6270,234.3703,0,U,35632,999,78318,.73527E-2,.3164E-3,0
IRIDIUM 33 DEB,1997-051RJ,2024-07-04T11:10:59.153952,14.09722159,.0187741,86.1053,252.5074,145.5897,275.9496,0,U,35680,999,53252,.24261E-2,.5032E-4,0
IRIDIUM 33 DEB,1997-051RX,2024-07-07T08:05:56.251968,14.59507689,.0027347,86.3339,199.8168,189.8681,170.1996,0,U,35744,999,79663,.95645E-3,.4584E-4,0
IRIDIUM 33 DEB,1997-051SC,2024-07-07T08:17:28.122432,14.89927672,.0004792,86.3704,221.6183,335.0285,25.0709,0,U,35749,999,78311,.2675E-2,.25836E-3,0
IRIDIUM 33 DEB,1997-051SF,2024-07-06T19:27:58.476672,14.63610335,.0019447,86.3437,207.0254,178.6132,181.5138,0,U,35797,999,79623,.13137E-2,.6865E-4,0
IRIDIUM 33 DEB,1997-051SP,2024-07-08T05:27:50.382144,14.68422568,.0051878,86.3152,286.7553,63.7761,296.8773,0,U,35805,999,78003,.68186E-2,.40467E-3,0
IRIDIUM 33 DEB,1997-051SQ,2024-06-28T22:34:20.191872,14.47798830,.00165,86.3468,253.0467,65.2002,295.0915,0,U,35806,999,78650,.2235E-2,.8299E-4,0
IRIDIUM 33 DEB,1997-051ST,2024-07-07T07:46:04.674144,14.59641076,.0016033,86.3326,210.6966,242.1259,117.8327,0,U,35809,999,79126,.11514E-2,.5511E-4,0
IRIDIUM 33 DEB,1997-051SW,2024-07-08T05:03:36.027360,14.39209880,.0020844,86.3762,281.0507,101.0483,259.3061,0,U,35846,999,78207,.83344E-3,.2608E-4,0
IRIDIUM 33 DEB,1997-051SY,2024-07-04T10:40:27.811776,14.61246328,.001115,86.3951,249.5748,221.7934,138.2426,0,U,35848,999,78538,.14684E-2,.7268E-4,0
IRIDIUM 33 DEB,1997-051TA,2024-07-05T08:00:54.286560,14.61743867,.0013988,86.3558,220.0457,212.1209,147.9151,0,U,35850,999,63633,.14399E-2,.7209E-4,0
IRIDIUM 33 DEB,1997-051TU,2024-07-06T20:09:52.458336,14.52529108,.0067983,86.2250,225.2680,53.6610,307.0844,0,U,35911,999,79322,.32781E-2,.13837E-3,0
IRIDIUM 33 DEB,1997-051TY,2024-07-07T08:23:26.145888,14.61929648,.0017348,86.3511,218.5658,208.4707,151.5558,0,U,35915,999,386,.1202E-2,.605E-4,0
IRIDIUM 33 DEB,1997-051UB,2024-07-07T14:27:55.179936,14.43563032,.0030943,86.4048,298.9579,117.4929,304.6755,0,U,35918,999,77892,.13941E-2,.4768E-4,0
IRIDIUM 33 DEB,1997-051UE,2024-07-06T11:11:23.315712,14.64556109,.0068729,86.4180,10.7630,224.1248,135.4470,0,U,35921,999,57722,.76005E-2,.41957E-3,0
IRIDIUM 33 DEB,1997-051UN,2024-07-07T06:34:44.374944,14.71102793,.0026666,86.3471,194.1982,84.8338,275.5921,0,U,35929,999,80003,.16787E-2,.10406E-3,0
IRIDIUM 33 DEB,1997-051US,2024-07-05T22:56:32.153280,14.38073369,.0021833,86.3416,260.1626,146.6624,338.1095,0,U,36011,999,77896,.66751E-3,.2046E-4,0
IRIDIUM 33 DEB,1997-051UT,2024-07-07T08:37:08.024160,14.02529991,.0272775,86.4522,155.7923,107.8636,255.2493,0,U,36012,999,58100,.65182E-2,.1396E-3,0
IRIDIUM 33 DEB,1997-051VA,2024-07-07T08:16:25.998240,14.88931563,.0008909,86.3812,225.7007,123.1668,250.2608,0,U,36019,999,78799,.27306E-2,.25743E-3,0
IRIDIUM 33 DEB,1997-051VK,2024-07-07T05:34:43.894272,14.69171798,.0029935,86.3329,187.6127,96.7600,263.7024,0,U,36028,999,79368,.15941E-2,.947E-4,0
IRIDIUM 33 DEB,1997-051VM,2024-07-03T20:40:58.608480,14.42044646,.0021313,86.3214,236.6686,110.6144,249.7344,0,U,36080,999,77972,.67488E-3,.224E-4,0
IRIDIUM 33 DEB,1997-051VQ,2024-07-06T11:09:06.205824,14.39353636,.0029474,86.3434,259.1239,153.4907,206.7807,0,U,36083,999,77896,.69273E-3,.2183E-4,0
IRIDIUM 33 DEB,1997-051VZ,2024-07-06T12:09:58.440096,14.41578963,.0010838,86.3810,276.1056,72.7557,287.4828,0,U,36483,999,78317,.69183E-3,.227E-4,0
IRIDIUM 33 DEB,1997-051WB,2024-07-07T05:16:34.768704,14.78517140,.0072919,86.4390,4.1092,72.7777,288.1408,0,U,36485,999,478,.99639E-2,.76809E-3,0
IRIDIUM 33 DEB,1997-051WD,2024-07-05T19:20:37.773600,14.43442141,.0100429,86.3472,20.3350,183.0393,177.0211,0,U,36487,999,61983,.96929E-2,.34969E-3,0
IRIDIUM 33 DEB,1997-051WG,2024-07-05T11:04:05.092320,14.58761939,.0004728,86.3718,244.1073,92.4053,267.7697,0,U,36490,999,78777,.15944E-2,.7468E-4,0
IRIDIUM 33 DEB,1997-051WK,2024-07-07T10:48:19.709568,14.53713356,.0011057,86.3606,242.0958,333.0991,26.9640,0,U,36493,999,66882,.10125E-2,.4264E-4,0
IRIDIUM 33 DEB,1997-051WV,2024-07-05T20:47:54.325536,14.68246714,.00827,86.4083,43.7866,82.2471,278.8124,0,U,36566,999,77052,.11119E-1,.68058E-3,0
IRIDIUM 33 DEB,1997-051XH,2024-06-28T23:40:44.408640,14.42997573,.002838,86.3534,273.2764,163.5151,196.6979,0,U,37548,999,57838,.24811E-2,.8368E-4,0
IRIDIUM 33 DEB,1997-051XK,2024-07-07T10:02:58.434432,14.54827395,.0005657,86.3816,253.5885,111.8020,248.3790,0,U,37550,999,78688,.11219E-2,.4833E-4,0
IRIDIUM 33 DEB,1997-051XT,2024-07-06T11:03:29.213856,14.94523200,.0025167,86.3826,262.2737,221.3983,138.5340,0,U,37558,999,53972,.17016E-2,.18544E-3,0
IRIDIUM 33 DEB,1997-051XX,2024-07-07T00:05:21.256800,14.47531313,.0029244,86.3770,270.3683,69.8393,51.0917,0,U,37562,999,78725,.11528E-2,.428E-4,0
IRIDIUM 33 DEB,1997-051YA,2024-07-05T20:55:10.572960,14.46962435,.0014777,86.3493,237.3548,45.8064,314.4350,0,U,37565,999,77685,.68324E-3,.2504E-4,0
IRIDIUM 33 DEB,1997-051YD,2024-07-07T12:39:15.062688,14.23090598,.0159782,86.3356,29.5223,12.7936,347.7233,0,U,38017,999,69497,.52923E-2,.13643E-3,0
IRIDIUM 33 DEB,1997-051YG,2024-07-07T03:01:37.801344,14.60959362,.0092541,86.2797,328.4253,102.0830,259.0769,0,U,38020,999,76630,.10906E-1,.57186E-3,0
IRIDIUM 33 DEB,1997-051YJ,2024-07-07T10:00:28.199520,14.35269399,.0049099,86.2755,244.3382,325.7442,34.0589,0,U,38022,999,61669,.7202E-3,.2108E-4,0
IRIDIUM 33 DEB,1997-051YQ,2024-07-07T20:25:07.531104,14.43264921,.0031312,86.3249,226.9630,61.4065,299.0279,0,U,38028,999,75574,.54269E-3,.1857E-4,0
